#cP2015  3 10  0  0  0.00000000      96 ORBIT IGb08 HLM  IGS
## 1835 172800.00000000   900.00000000 57091 0.0000000000000
+   31   G01G02G03G04G05G06G07G08G09G10G11G12G13G14G15G16G17
+        G18G19G20G21G22G23G24G25G27G28G29G30G31G32  0  0  0
+          0  0  0  0  0  0  0  0  0  0  0  0  0  0  0  0  0
+          0  0  0  0  0  0  0  0  0  0  0  0  0  0  0  0  0
+          0  0  0  0  0  0  0  0  0  0  0  0  0  0  0  0  0
++         2  2  3  2  2  2  2  3  2  2  2  2  2  3  3  3  2
++         2  2  3  2  2  3  2  2  2  2  2  2  2  2  0  0  0
++         0  0  0  0  0  0  0  0  0  0  0  0  0  0  0  0  0
++         0  0  0  0  0  0  0  0  0  0  0  0  0  0  0  0  0
++         0  0  0  0  0  0  0  0  0  0  0  0  0  0  0  0  0
%c G  cc GPS ccc cccc cccc cccc cccc ccccc ccccc ccccc ccccc
%c cc cc ccc ccc cccc cccc cccc cccc ccccc ccccc ccccc ccccc
%f  1.2500000  1.025000000  0.00000000000  0.000000000000000
%f  0.0000000  0.000000000  0.00000000000  0.000000000000000
%i    0    0    0    0      0      0      0      0         0
%i    0    0    0    0      0      0      0      0         0
/* RAPID ORBIT COMBINATION FROM WEIGHTED AVERAGE OF:        
/* cod emr esa gfz jpl ngs sio usn whu                      
/* REFERENCED TO IGS TIME (IGST) AND TO WEIGHTED MEAN POLE: 
/* PCV:IGS08_1832 OL/AL:FES2004  NONE     Y  ORB:CMB CLK:CMB
*  2015  3 10 21  0  0.00000000
PG01 -18371.807520 -13373.613516 -13942.905612     -8.109591  8  7  5 137       
PG02  -4711.939542  15205.626299  21584.697969    552.762835  7  5  5  95       
PG03 -13582.636913 -21354.394726   7995.892448    249.014801  9  9  9 105       
PG04  -8810.868975 -16044.732551 -19648.685539     -8.774838  7  2  6 134       
PG05   1245.708208  24457.485097  10006.712914   -268.618306  8  6  5 118       
PG06 -19821.393524   7689.500734  15909.329474    104.761405  5  8  6 114       
PG07 -25777.721708  -6881.292190   2143.472943    446.660973  9  8  5  92       
PG08   7372.216693 -12793.095646  22224.010219     18.356456  6  9  8 105       
PG09 -17245.915628  -1520.372589  20134.948356   -109.326940  6  6  5  99       
PG10 -12624.783537   9764.870947  20790.967038   -166.627640  7  6  5 121       
PG11 -12905.599321 -13703.132380 -19308.188073   -563.357088  9  7  6 132       
PG12  10923.971024  23742.415984   5284.023782    275.583583 10  8  7 116       
PG13  -9808.270437  21237.313426 -12844.518630    -95.430280  6  9  6 116       
PG14  20922.185578 -14785.014684  -6472.440830     80.148610  7  7  6 111       
PG15   3857.574252  18062.131472 -19062.838379   -236.903249  9  9  7  87       
PG16    118.371721 -24229.640924  10356.373496   -149.298251 10  8  6 135       
PG17 -20815.789336  13518.822105  -8859.783474   -160.200729  6  9  7  92       
PG18  17268.658169   4814.605830 -19206.965339    385.364899  9  8  9 107       
PG19   1892.936376 -19269.802074 -18145.945761   -503.447822 10  8  4 129       
PG20 -13163.330449   9216.379243  20986.707186    298.225519  7  5  2 119       
PG21  26460.374165   3655.100896  -1060.126408   -424.979114  8  8  7 132       
PG22  13386.210720  -9113.820650 -20812.498753    327.093920  5  7  7 131       
PG23 -10503.544682 -11540.855626  21603.327797    -94.193387 10  8  6 107       
PG24  15788.156772  14202.524658 -16073.067288    -44.759252  8  7  5  97       
PG25  16225.050219  14084.993873  15636.467508     -9.871543  9  8  6 124       
PG27  10408.325922 -22472.299995  -9467.613009     56.972472  4  8  6 100       
PG28 -13991.025756   3111.348886 -21744.645477    425.041781  8  7  6 120       
PG29  14531.781226   5931.660097  21449.648817    597.011274  9  7  3 132       
PG30 -25163.184244   -337.902726  -8585.897632    -80.776868  5  7  8 107       
PG31  17736.908467  -8666.595513  18067.369643    321.471668     8  5 120       
PG32  -3239.769721 -26179.544552  -5025.335317   -204.518632  6  7  4  90       
*  2015  3 10 21 15  0.00000000
PG01 -16666.063257 -13281.364124 -16011.388950     -8.109140  8  7  4 136       
PG02  -7069.900893  14859.016309  21129.238940    552.764704  6  5  5  87       
PG03 -13629.804195 -22152.410344   5276.468576    249.030650 10  9  9 108       
PG04  -6574.126236 -15840.544140 -20656.486714     -8.775468  7  2  7 137       
PG05    515.842532  23351.008646  12426.654295   -268.613973  8  5  5 116       
PG06 -21478.308690   7259.057362  13823.595465    104.771005  5  8  7 101       
PG07 -25358.933315  -7006.204126   4960.629121    446.663576  9  8  5 112       
PG08   9730.596930 -12063.901418  21659.043954     18.357873  6  9  9 111       
PG09 -15850.496560  -3422.872458  21026.901140   -109.336043  7  6  4  98       
PG10 -13574.720546   7459.662561  21175.569014   -166.629176  7  6  6 118       
PG11 -10785.491273 -14248.140175 -20205.331292   -563.359279  8  6  6 144       
PG12  10923.460664  24215.259948   2429.567947    275.586098 10  8  7 115       
PG13 -10848.558902  22040.990462 -10402.758196    -95.433204  5  8  6 119       
PG14  20466.484136 -13944.879015  -9156.889297     80.145176  6  8  6 109       
PG15   2477.691803  19658.050779 -17624.869777   -236.905666  9  8  7  98       
PG16    695.264306 -23001.984491  12853.641386   -149.295119  9  7  6 135       
PG17 -20192.609965  12465.382498 -11415.963964   -160.202848  6  9  7  59       
PG18  17972.396730   6924.540389 -17933.411142    385.367056  9  9  9 112       
PG19   3367.773758 -20568.419472 -16363.548925   -503.448973  9  8  4 138       
PG20 -14244.641151   7010.032016  21140.255669    298.229143  7  6  3 108       
PG21  26455.135523   3959.586892   1718.639068   -424.983116  8  8  7 127       
PG22  14359.520115  -6858.300997 -21041.432953    327.097664  5  7  8 134       
PG23  -8937.422402 -13398.114719  21191.707269    -94.195713 10  8  6  96       
PG24  13852.448838  14105.950548 -17836.130229    -44.759120  7  6  6 112       
PG25  16702.847387  15692.244340  13479.538973     -9.874242  9  8  5 115       
PG27  11166.202229 -23061.233640  -6802.899267     56.974808  4  8  6 118       
PG28 -14760.220268    626.975934 -21463.801623    425.043998  7  8  6 124       
PG29  12920.215628   7803.771164  21881.611902    597.013451  9  7  3 124       
PG30 -25914.989647   -762.924367  -5904.792055    -80.774730  6  7  9 109       
PG31  19611.281119  -8211.305442  16267.979022    321.470942     8  6 124       
PG32  -2802.760490 -25562.249763  -7698.800582   -204.510229  6  7  5 111       
*  2015  3 10 21 30  0.00000000
PG01 -14740.365891 -13258.526098 -17807.266477     -8.108680  8  8  3 131       
PG02  -9377.035098  14633.221642  20319.109319    552.767051  6  5  6 101       
PG03 -13586.179620 -22662.859641   2466.017760    249.046649 10  8  9 101       
PG04  -4236.048494 -15740.947276 -21320.136358     -8.776401  6  3  7 141       
PG05   -379.374573  22044.704085  14630.220915   -268.609662  7  4  3 118       
PG06 -22906.696868   6937.450766  11499.789255    104.780634  4  8  8 112       
PG07 -24638.108562  -7118.270103   7694.419005    446.666379 10  7  4 108       
PG08  12050.306141 -11487.960912  20724.463827     18.356658  6  9  9 111       
PG09 -14508.978050  -5460.965398  21556.770265   -109.345091  8  6  5 106       
PG10 -14641.408443   5185.729608  21182.174339   -166.630475  6  6  6 120       
PG11  -8613.170047 -14902.188173 -20770.505516   -563.361623  8  6  7 138       
PG12  10826.480246  24386.792953   -466.175757    275.588770 10  7  7 115       
PG13 -11655.810189  22686.113574  -7784.322546    -95.435812  5  7  6 125       
PG14  19866.999518 -12850.829053 -11680.921675     80.142280  6  8  7 118       
PG15   1269.746407  21168.306549 -15882.178985   -236.907253  9  7  7  98       
PG16   1438.713835 -21554.582937  15124.614687   -149.292021  9  6  6 130       
PG17 -19454.616894  11155.746496 -13770.551915   -160.204425  6 10  7  80       
PG18  18700.209916   8847.588042 -16342.608805    385.369679  9  9  9 109       
PG19   4633.735051 -21778.778348 -14297.609644   -503.450137  8  7  5 134       
PG20 -15424.734421   4860.015235  20924.991372    298.233064  7  6  4 119       
PG21  26158.237141   4234.623077   4468.685310   -424.986810  9  8  7 129       
PG22  15435.786600  -4646.410851 -20900.918142    327.101361  6  7  8 137       
PG23  -7502.594790 -15280.878199  20417.781853    -94.198024 10  7  7 100       
PG24  11732.419488  14095.403563 -19294.556955    -44.759892  7  6  6 115       
PG25  17159.553397  17036.058600  11091.347654     -9.876980  9  8  5 116       
PG27  11715.289586 -23435.626008  -4020.437235     56.977150  4  8  7 118       
PG28 -15643.648765  -1757.542315 -20791.880663    425.046525  7  9  7 128       
PG29  11395.235462   9781.502624  21938.019274    597.015731  9  6  4 124       
PG30 -26383.157612  -1097.944871  -3122.398094    -80.772595  7  6  9 124       
PG31  21291.274561  -7886.768305  14195.165776    321.469870  2  8  6 121       
PG32  -2233.416164 -24694.334239 -10243.884855   -204.501789  6  6  5 108       
EOF
